GOES 6                  
1 14050U 83041A   26006.03818159 -.00000135  00000+0  00000+0 0  9993
2 14050  10.4490 322.2703 0003476 285.4918 133.4224  1.002186952 14396